CCSDS_OMM_VERS = 2.0
CREATION_DATE  = 
ORIGINATOR     = 

OBJECT_NAME    = STARLINK-35956
OBJECT_ID      = 2025-271N
CENTER_NAME    = EARTH
REF_FRAME      = TEME
TIME_SYSTEM    = UTC
MEAN_ELEMENT_THEORY = SGP/SGP4

EPOCH          = 2025-12-28T17:56:37.568256
MEAN_MOTION    = 15.59252903
ECCENTRICITY   = .0011647
INCLINATION    = 53.1703
RA_OF_ASC_NODE = 110.2857
ARG_OF_PERICENTER = 28.0213
MEAN_ANOMALY   = 332.1426

EPHEMERIS_TYPE = 0
CLASSIFICATION_TYPE = U
NORAD_CAT_ID   = 66629
ELEMENT_SET_NO = 999
REV_AT_EPOCH   = 155
BSTAR          = .80335E-2
MEAN_MOTION_DOT = .702325E-2
MEAN_MOTION_DDOT = 0

CCSDS_OMM_VERS = 2.0
CREATION_DATE  = 
ORIGINATOR     = 

OBJECT_NAME    = STARLINK-35949
OBJECT_ID      = 2025-271P
CENTER_NAME    = EARTH
REF_FRAME      = TEME
TIME_SYSTEM    = UTC
MEAN_ELEMENT_THEORY = SGP/SGP4

EPOCH          = 2025-12-28T15:04:20.986752
MEAN_MOTION    = 15.39646581
ECCENTRICITY   = .0000773
INCLINATION    = 53.1614
RA_OF_ASC_NODE = 111.6543
ARG_OF_PERICENTER = 99.2843
MEAN_ANOMALY   = 260.8249

EPHEMERIS_TYPE = 0
CLASSIFICATION_TYPE = U
NORAD_CAT_ID   = 66630
ELEMENT_SET_NO = 999
REV_AT_EPOCH   = 666
BSTAR          = .10617E-2
MEAN_MOTION_DOT = .42341E-3
MEAN_MOTION_DDOT = 0

CCSDS_OMM_VERS = 2.0
CREATION_DATE  = 
ORIGINATOR     = 

OBJECT_NAME    = STARLINK-35965
OBJECT_ID      = 2025-271Q
CENTER_NAME    = EARTH
REF_FRAME      = TEME
TIME_SYSTEM    = UTC
MEAN_ELEMENT_THEORY = SGP/SGP4

EPOCH          = 2025-12-28T18:10:50.050272
MEAN_MOTION    = 15.39639618
ECCENTRICITY   = .0001153
INCLINATION    = 53.1608
RA_OF_ASC_NODE = 111.0404
ARG_OF_PERICENTER = 65.1313
MEAN_ANOMALY   = 294.9811

EPHEMERIS_TYPE = 0
CLASSIFICATION_TYPE = U
NORAD_CAT_ID   = 66631
ELEMENT_SET_NO = 999
REV_AT_EPOCH   = 668
BSTAR          = .19511E-2
MEAN_MOTION_DOT = .78502E-3
MEAN_MOTION_DDOT = 0

CCSDS_OMM_VERS = 2.0
CREATION_DATE  = 
ORIGINATOR     = 

OBJECT_NAME    = STARLINK-35973
OBJECT_ID      = 2025-271R
CENTER_NAME    = EARTH
REF_FRAME      = TEME
TIME_SYSTEM    = UTC
MEAN_ELEMENT_THEORY = SGP/SGP4

EPOCH          = 2025-12-28T16:11:13.291296
MEAN_MOTION    = 15.39615509
ECCENTRICITY   = .0001348
INCLINATION    = 53.1593
RA_OF_ASC_NODE = 111.9458
ARG_OF_PERICENTER = 63.1386
MEAN_ANOMALY   = 296.9757

EPHEMERIS_TYPE = 0
CLASSIFICATION_TYPE = U
NORAD_CAT_ID   = 66632
ELEMENT_SET_NO = 999
REV_AT_EPOCH   = 662
BSTAR          = .11851E-2
MEAN_MOTION_DOT = .47291E-3
MEAN_MOTION_DDOT = 0

CCSDS_OMM_VERS = 2.0
CREATION_DATE  = 
ORIGINATOR     = 

OBJECT_NAME    = STARLINK-35948
OBJECT_ID      = 2025-271S
CENTER_NAME    = EARTH
REF_FRAME      = TEME
TIME_SYSTEM    = UTC
MEAN_ELEMENT_THEORY = SGP/SGP4

EPOCH          = 2025-12-28T16:10:45.448032
MEAN_MOTION    = 15.39602426
ECCENTRICITY   = .0001298
INCLINATION    = 53.1594
RA_OF_ASC_NODE = 111.9435
ARG_OF_PERICENTER = 79.5965
MEAN_ANOMALY   = 280.5186

EPHEMERIS_TYPE = 0
CLASSIFICATION_TYPE = U
NORAD_CAT_ID   = 66633
ELEMENT_SET_NO = 999
REV_AT_EPOCH   = 666
BSTAR          = .11942E-2
MEAN_MOTION_DOT = .47638E-3
MEAN_MOTION_DDOT = 0

CCSDS_OMM_VERS = 2.0
CREATION_DATE  = 
ORIGINATOR     = 

OBJECT_NAME    = STARLINK-35967
OBJECT_ID      = 2025-271T
CENTER_NAME    = EARTH
REF_FRAME      = TEME
TIME_SYSTEM    = UTC
MEAN_ELEMENT_THEORY = SGP/SGP4

EPOCH          = 2025-12-28T16:04:04.516608
MEAN_MOTION    = 15.39683705
ECCENTRICITY   = .0000984
INCLINATION    = 53.1592
RA_OF_ASC_NODE = 111.9132
ARG_OF_PERICENTER = 73.0635
MEAN_ANOMALY   = 287.0478

EPHEMERIS_TYPE = 0
CLASSIFICATION_TYPE = U
NORAD_CAT_ID   = 66634
ELEMENT_SET_NO = 999
REV_AT_EPOCH   = 662
BSTAR          = .18972E-2
MEAN_MOTION_DOT = .76412E-3
MEAN_MOTION_DDOT = 0

CCSDS_OMM_VERS = 2.0
CREATION_DATE  = 
ORIGINATOR     = 

OBJECT_NAME    = STARLINK-35955
OBJECT_ID      = 2025-271U
CENTER_NAME    = EARTH
REF_FRAME      = TEME
TIME_SYSTEM    = UTC
MEAN_ELEMENT_THEORY = SGP/SGP4

EPOCH          = 2025-12-28T15:50:41.088192
MEAN_MOTION    = 15.39629540
ECCENTRICITY   = .00009
INCLINATION    = 53.1601
RA_OF_ASC_NODE = 111.8561
ARG_OF_PERICENTER = 65.3249
MEAN_ANOMALY   = 294.7849

EPHEMERIS_TYPE = 0
CLASSIFICATION_TYPE = U
NORAD_CAT_ID   = 66635
ELEMENT_SET_NO = 999
REV_AT_EPOCH   = 666
BSTAR          = .10303E-2
MEAN_MOTION_DOT = .41047E-3
MEAN_MOTION_DDOT = 0

CCSDS_OMM_VERS = 2.0
CREATION_DATE  = 
ORIGINATOR     = 

OBJECT_NAME    = STARLINK-35968
OBJECT_ID      = 2025-271V
CENTER_NAME    = EARTH
REF_FRAME      = TEME
TIME_SYSTEM    = UTC
MEAN_ELEMENT_THEORY = SGP/SGP4

EPOCH          = 2025-12-28T17:30:51.129216
MEAN_MOTION    = 15.39636585
ECCENTRICITY   = .0002125
INCLINATION    = 53.1604
RA_OF_ASC_NODE = 111.5801
ARG_OF_PERICENTER = 42.5724
MEAN_ANOMALY   = 317.5445

EPHEMERIS_TYPE = 0
CLASSIFICATION_TYPE = U
NORAD_CAT_ID   = 66636
ELEMENT_SET_NO = 999
REV_AT_EPOCH   = 667
BSTAR          = .15853E-2
MEAN_MOTION_DOT = .63577E-3
MEAN_MOTION_DDOT = 0

CCSDS_OMM_VERS = 2.0
CREATION_DATE  = 
ORIGINATOR     = 

OBJECT_NAME    = STARLINK-35953
OBJECT_ID      = 2025-271W
CENTER_NAME    = EARTH
REF_FRAME      = TEME
TIME_SYSTEM    = UTC
MEAN_ELEMENT_THEORY = SGP/SGP4

EPOCH          = 2025-12-28T17:17:28.425696
MEAN_MOTION    = 15.39635032
ECCENTRICITY   = .0001074
INCLINATION    = 53.1601
RA_OF_ASC_NODE = 111.5206
ARG_OF_PERICENTER = 83.9355
MEAN_ANOMALY   = 276.1772

EPHEMERIS_TYPE = 0
CLASSIFICATION_TYPE = U
NORAD_CAT_ID   = 66637
ELEMENT_SET_NO = 999
REV_AT_EPOCH   = 667
BSTAR          = .15825E-2
MEAN_MOTION_DOT = .63461E-3
MEAN_MOTION_DDOT = 0

CCSDS_OMM_VERS = 2.0
CREATION_DATE  = 
ORIGINATOR     = 

OBJECT_NAME    = STARLINK-35972
OBJECT_ID      = 2025-271X
CENTER_NAME    = EARTH
REF_FRAME      = TEME
TIME_SYSTEM    = UTC
MEAN_ELEMENT_THEORY = SGP/SGP4

EPOCH          = 2025-12-28T13:57:08.818848
MEAN_MOTION    = 15.39605977
ECCENTRICITY   = .0001243
INCLINATION    = 53.1607
RA_OF_ASC_NODE = 112.0738
ARG_OF_PERICENTER = 81.8215
MEAN_ANOMALY   = 278.2931

EPHEMERIS_TYPE = 0
CLASSIFICATION_TYPE = U
NORAD_CAT_ID   = 66638
ELEMENT_SET_NO = 999
REV_AT_EPOCH   = 665
BSTAR          = .13438E-2
MEAN_MOTION_DOT = .53707E-3
MEAN_MOTION_DDOT = 0

CCSDS_OMM_VERS = 2.0
CREATION_DATE  = 
ORIGINATOR     = 

OBJECT_NAME    = STARLINK-35908
OBJECT_ID      = 2025-271Y
CENTER_NAME    = EARTH
REF_FRAME      = TEME
TIME_SYSTEM    = UTC
MEAN_ELEMENT_THEORY = SGP/SGP4

EPOCH          = 2025-12-28T13:50:27.602304
MEAN_MOTION    = 15.39613803
ECCENTRICITY   = .0001257
INCLINATION    = 53.1610
RA_OF_ASC_NODE = 112.0438
ARG_OF_PERICENTER = 88.5773
MEAN_ANOMALY   = 271.5376

EPHEMERIS_TYPE = 0
CLASSIFICATION_TYPE = U
NORAD_CAT_ID   = 66639
ELEMENT_SET_NO = 999
REV_AT_EPOCH   = 665
BSTAR          = .12734E-2
MEAN_MOTION_DOT = .50866E-3
MEAN_MOTION_DDOT = 0

CCSDS_OMM_VERS = 2.0
CREATION_DATE  = 
ORIGINATOR     = 

OBJECT_NAME    = STARLINK-35921
OBJECT_ID      = 2025-271Z
CENTER_NAME    = EARTH
REF_FRAME      = TEME
TIME_SYSTEM    = UTC
MEAN_ELEMENT_THEORY = SGP/SGP4

EPOCH          = 2025-12-28T14:03:49.877280
MEAN_MOTION    = 15.39612681
ECCENTRICITY   = .0001249
INCLINATION    = 53.1611
RA_OF_ASC_NODE = 112.1023
ARG_OF_PERICENTER = 87.1427
MEAN_ANOMALY   = 272.9721

EPHEMERIS_TYPE = 0
CLASSIFICATION_TYPE = U
NORAD_CAT_ID   = 66640
ELEMENT_SET_NO = 999
REV_AT_EPOCH   = 665
BSTAR          = .1288E-2
MEAN_MOTION_DOT = .51455E-3
MEAN_MOTION_DDOT = 0

CCSDS_OMM_VERS = 2.0
CREATION_DATE  = 
ORIGINATOR     = 

OBJECT_NAME    = STARLINK-35923
OBJECT_ID      = 2025-271AA
CENTER_NAME    = EARTH
REF_FRAME      = TEME
TIME_SYSTEM    = UTC
MEAN_ELEMENT_THEORY = SGP/SGP4

EPOCH          = 2025-12-28T20:00:01.000224
MEAN_MOTION    = 15.39579051
ECCENTRICITY   = .0001164
INCLINATION    = 53.1590
RA_OF_ASC_NODE = 110.5819
ARG_OF_PERICENTER = 81.5923
MEAN_ANOMALY   = 28.7161

EPHEMERIS_TYPE = 0
CLASSIFICATION_TYPE = U
NORAD_CAT_ID   = 66641
ELEMENT_SET_NO = 999
REV_AT_EPOCH   = 577
BSTAR          = .14038E-2
MEAN_MOTION_DOT = .56088E-3
MEAN_MOTION_DDOT = 0

CCSDS_OMM_VERS = 2.0
CREATION_DATE  = 
ORIGINATOR     = 

OBJECT_NAME    = STARLINK-35926
OBJECT_ID      = 2025-271AB
CENTER_NAME    = EARTH
REF_FRAME      = TEME
TIME_SYSTEM    = UTC
MEAN_ELEMENT_THEORY = SGP/SGP4

EPOCH          = 2025-12-28T19:37:36.559200
MEAN_MOTION    = 15.39657277
ECCENTRICITY   = .0001529
INCLINATION    = 53.1601
RA_OF_ASC_NODE = 110.7020
ARG_OF_PERICENTER = 101.9745
MEAN_ANOMALY   = 258.1431

EPHEMERIS_TYPE = 0
CLASSIFICATION_TYPE = U
NORAD_CAT_ID   = 66642
ELEMENT_SET_NO = 999
REV_AT_EPOCH   = 665
BSTAR          = .88905E-3
MEAN_MOTION_DOT = .3537E-3
MEAN_MOTION_DDOT = 0

CCSDS_OMM_VERS = 2.0
CREATION_DATE  = 
ORIGINATOR     = 

OBJECT_NAME    = STARLINK-35918
OBJECT_ID      = 2025-271AC
CENTER_NAME    = EARTH
REF_FRAME      = TEME
TIME_SYSTEM    = UTC
MEAN_ELEMENT_THEORY = SGP/SGP4

EPOCH          = 2025-12-28T15:17:14.874144
MEAN_MOTION    = 15.39636987
ECCENTRICITY   = .0000786
INCLINATION    = 53.1616
RA_OF_ASC_NODE = 111.7083
ARG_OF_PERICENTER = 74.5131
MEAN_ANOMALY   = 285.5960

EPHEMERIS_TYPE = 0
CLASSIFICATION_TYPE = U
NORAD_CAT_ID   = 66643
ELEMENT_SET_NO = 999
REV_AT_EPOCH   = 666
BSTAR          = .97749E-3
MEAN_MOTION_DOT = .3892E-3
MEAN_MOTION_DDOT = 0

